NORAD_CAT_ID,OBJECT_NAME,OBJECT_TYPE,EPOCH,MEAN_MOTION,ECCENTRICITY,INCLINATION,RA_OF_ASC_NODE,ARG_OF_PERICENTER,MEAN_ANOMALY,BSTAR,MEAN_MOTION_DOT,MEAN_MOTION_DDOT,TLE_LINE0,TLE_LINE1,TLE_LINE2,SEMIMAJOR_AXIS,PERIOD,APOGEE,PERIGEE,DECAYED
52876.0,STARLINK-4200,PAYLOAD,2023-12-29 07:41:47,15.0883543,0.0001595,53.2191,11.6105,97.3097,262.8077,3.2959e-05,2.37e-06,0.0,0 STARLINK-4200,1 52876U 22062AY  23363.32068552  .00000237  00000-0  32959-4 0  9992,2 52876  53.2191  11.6105 0001595  97.3097 262.8077 15.08835430 85574,6917.894,95.438,540.863,538.656,0.0
52876.0,STARLINK-4200,PAYLOAD,2023-12-30 05:57:10,15.08841262,0.0001789,53.219,7.4471,105.9356,254.1834,9.8299e-05,1.277e-05,0.0,0 STARLINK-4200,1 52876U 22062AY  23364.24804124  .00001277  00000-0  98299-4 0  9991,2 52876  53.2190   7.4471 0001789 105.9356 254.1834 15.08841262 85712,6917.877,95.437,540.979,538.504,0.0
52876.0,STARLINK-4200,PAYLOAD,2023-12-31 04:12:37,15.08815383,0.0001723,53.2193,3.2853,99.3431,260.7756,-8.7275e-05,-1.676e-05,0.0,0 STARLINK-4200,1 52876U 22062AY  23365.17543481 -.00001676  00000-0 -87275-4 0  9997,2 52876  53.2193   3.2853 0001723  99.3431 260.7756 15.08815383 85857,6917.956,95.439,541.013,538.629,0.0
52876.0,STARLINK-4200,PAYLOAD,2023-12-31 08:58:45,15.08836335,0.0001602,53.2186,2.3846,87.2238,272.8937,9.6681e-05,1.251e-05,0.0,0 STARLINK-4200,1 52876U 22062AY  23365.37414026  .00001251  00000-0  96681-4 0  9999,2 52876  53.2186   2.3846 0001602  87.2238 272.8937 15.08836335 85886,6917.892,95.438,540.865,538.648,0.0
52876.0,STARLINK-4200,PAYLOAD,2024-01-01 04:03:22,15.08852183,0.0001277,53.2172,358.8128,86.6989,273.4149,0.00015071,2.112e-05,0.0,0 STARLINK-4200,1 52876U 22062AY  24001.16900738  .00002112  00000-0  15071-3 0  9994,2 52876  53.2172 358.8128 0001277  86.6989 273.4149 15.08852183 86003,6917.843,95.437,540.592,538.825,0.0
52876.0,STARLINK-4200,PAYLOAD,2024-01-01 08:49:32,15.08820914,0.0001377,53.2192,357.9269,29.463,330.6439,0.00089674,0.00014005,0.0,0 STARLINK-4200,1 52876U 22062AY  24001.36773854  .00014005  00000-0  89674-3 0  9997,2 52876  53.2192 357.9269 0001377  29.4630 330.6439 15.08820914 86038,6917.939,95.439,540.756,538.851,0.0
52876.0,STARLINK-4200,PAYLOAD,2024-01-01 23:08:00,15.08845335,0.0001539,53.2196,355.2536,80.2213,279.8953,0.00024009,3.536e-05,0.0,0 STARLINK-4200,1 52876U 22062AY  24001.96389206  .00003536  00000-0  24009-3 0  9995,2 52876  53.2196 355.2536 0001539  80.2213 279.8953 15.08845335 85636,6917.864,95.437,540.794,538.664,0.0
52876.0,STARLINK-4200,PAYLOAD,2024-01-02 03:54:09,15.08846419,0.0001514,53.2191,354.3606,86.4279,273.6887,0.00022059,3.225e-05,0.0,0 STARLINK-4200,1 52876U 22062AY  24002.16261102  .00003225  00000-0  22059-3 0  9990,2 52876  53.2191 354.3606 0001514  86.4279 273.6887 15.08846419 86152,6917.861,95.437,540.773,538.678,0.0
52876.0,STARLINK-4200,PAYLOAD,2024-01-02 08:40:18,15.08852425,0.0001684,53.2188,353.4669,78.1152,282.0029,0.00020741,3.016e-05,0.0,0 STARLINK-4200,1 52876U 22062AY  24002.36132716  .00003016  00000-0  20741-3 0  9994,2 52876  53.2188 353.4669 0001684  78.1152 282.0029 15.08852425 85697,6917.842,95.437,540.872,538.542,0.0
52876.0,STARLINK-4200,PAYLOAD,2024-01-03 08:31:05,15.08852175,0.0001433,53.2185,349.0039,98.9816,261.1339,-9.7301e-05,-1.837e-05,0.0,0 STARLINK-4200,1 52876U 22062AY  24003.35492631 -.00001837  00000-0 -97301-4 0  9997,2 52876  53.2185 349.0039 0001433  98.9816 261.1339 15.08852175 86331,6917.843,95.437,540.7,538.717,0.0
52876.0,STARLINK-4200,PAYLOAD,2024-01-04 05:11:06,15.08850189,0.00015,53.219,345.1377,107.5221,252.5935,1.1176e-05,-1.1e-06,0.0,0 STARLINK-4200,1 52876U 22062AY  24004.21604268 -.00000110  00000-0  11176-4 0  9992,2 52876  53.2190 345.1377 0001500 107.5221 252.5935 15.08850189 85979,6917.849,95.437,540.752,538.677,0.0
52876.0,STARLINK-4200,PAYLOAD,2024-01-04 22:40:21,15.08839965,0.0001629,53.2194,341.869,91.8618,268.2561,8.262e-05,1.027e-05,0.0,0 STARLINK-4200,1 52876U 22062AY  24004.94468793  .00001027  00000-0  82620-4 0  9992,2 52876  53.2194 341.8690 0001629  91.8618 268.2561 15.08839965 86082,6917.88,95.438,540.872,538.619,0.0
52876.0,STARLINK-4200,PAYLOAD,2024-01-05 03:26:30,15.08846552,0.0001339,53.2178,340.9767,90.2612,269.8533,7.0062e-05,8.27e-06,0.0,0 STARLINK-4200,1 52876U 22062AY  24005.14340369  .00000827  00000-0  70062-4 0  9997,2 52876  53.2178 340.9767 0001339  90.2612 269.8533 15.08846552 86608,6917.86,95.437,540.652,538.799,0.0
52876.0,STARLINK-4200,PAYLOAD,2024-01-05 22:31:08,15.08841262,0.0001356,53.2178,337.411,97.9096,262.205,-2.7155e-05,-7.2e-06,0.0,0 STARLINK-4200,1 52876U 22062AY  24005.93829102 -.00000720  00000-0 -27155-4 0  9990,2 52876  53.2178 337.4110 0001356  97.9096 262.2050 15.08841262 86233,6917.877,95.437,540.68,538.803,0.0
52876.0,STARLINK-4200,PAYLOAD,2024-01-06 03:17:17,15.0884453,0.0001258,53.2183,336.5198,96.4977,263.6159,1.4867e-06,-2.64e-06,0.0,0 STARLINK-4200,1 52876U 22062AY  24006.13700784 -.00000264  00000-0  14867-5 0  9996,2 52876  53.2183 336.5198 0001258  96.4977 263.6159 15.08844530 86751,6917.867,95.437,540.602,538.861,0.0
52876.0,STARLINK-4200,PAYLOAD,2024-01-06 08:03:27,15.08822,0.0001552,53.2178,335.6261,101.2868,258.8299,0.00035672,5.391e-05,0.0,0 STARLINK-4200,1 52876U 22062AY  24006.33573326  .00005391  00000-0  35672-3 0  9998,2 52876  53.2178 335.6261 0001552 101.2868 258.8299 15.08822000 86789,6917.935,95.439,540.874,538.727,0.0
52876.0,STARLINK-4200,PAYLOAD,2024-01-07 04:43:28,15.08838611,0.000136,53.2181,331.7585,94.7621,265.3526,1.5093e-05,-4.8e-07,0.0,0 STARLINK-4200,1 52876U 22062AY  24007.19685231 -.00000048  00000-0  15093-4 0  9993,2 52876  53.2181 331.7585 0001360  94.7621 265.3526 15.08838611 86915,6917.885,95.438,540.69,538.809,0.0
52876.0,STARLINK-4200,PAYLOAD,2024-01-07 07:54:14,15.08838198,0.0001357,53.2181,331.1642,95.0234,265.0914,1.1269e-05,-1.09e-06,0.0,0 STARLINK-4200,1 52876U 22062AY  24007.32933280 -.00000109  00000-0  11269-4 0  9997,2 52876  53.2181 331.1642 0001357  95.0234 265.0914 15.08838198 86449,6917.886,95.438,540.69,538.812,0.0
52876.0,STARLINK-4200,PAYLOAD,2024-01-08 06:09:38,15.08843365,0.0001395,53.2182,327.0005,98.6079,261.5071,8.5236e-05,1.069e-05,0.0,0 STARLINK-4200,1 52876U 22062AY  24008.25668983  .00001069  00000-0  85236-4 0  9995,2 52876  53.2182 327.0005 0001395  98.6079 261.5071 15.08843365 87072,6917.87,95.437,540.7,538.77,0.0
52876.0,STARLINK-4200,PAYLOAD,2024-01-09 06:00:24,15.0884969,0.0001471,53.2185,322.5401,98.5081,261.6078,0.00016674,2.367e-05,0.0,0 STARLINK-4200,1 52876U 22062AY  24009.25028513  .00002367  00000-0  16674-3 0  9996,2 52876  53.2185 322.5401 0001471  98.5081 261.6078 15.08849690 86739,6917.851,95.437,540.733,538.698,0.0
52876.0,STARLINK-4200,PAYLOAD,2024-01-09 20:18:54,15.08832032,0.0001197,53.2187,319.8622,112.9444,247.1674,1.182e-05,-1e-06,0.0,0 STARLINK-4200,1 52876U 22062AY  24009.84646167 -.00000100  00000-0  11820-4 0  9995,2 52876  53.2187 319.8622 0001197 112.9444 247.1674 15.08832032 87312,6917.905,95.438,540.598,538.942,0.0
52876.0,STARLINK-4200,PAYLOAD,2024-01-10 02:40:26,15.08842403,0.0001411,53.2177,318.678,97.7697,262.3455,6.1088e-05,6.84e-06,0.0,0 STARLINK-4200,1 52876U 22062AY  24010.11141494  .00000684  00000-0  61088-4 0  9997,2 52876  53.2177 318.6780 0001411  97.7697 262.3455 15.08842403 87355,6917.873,95.437,540.714,538.762,0.0
52876.0,STARLINK-4200,PAYLOAD,2024-01-10 09:01:57,15.08851659,0.0001591,53.218,317.4849,118.0385,242.0769,0.00013076,1.794e-05,0.0,0 STARLINK-4200,1 52876U 22062AY  24010.37636542  .00001794  00000-0  13076-3 0  9994,2 52876  53.2180 317.4849 0001591 118.0385 242.0769 15.08851659 87392,6917.845,95.437,540.81,538.609,0.0
52876.0,STARLINK-4200,PAYLOAD,2024-01-11 02:31:13,15.08836936,0.000141,53.2168,314.2224,80.8744,279.2408,7.9807e-05,9.82e-06,0.0,0 STARLINK-4200,1 52876U 22062AY  24011.10501947  .00000982  00000-0  79807-4 0  9999,2 52876  53.2168 314.2224 0001410  80.8744 279.2408 15.08836936 87501,6917.89,95.438,540.73,538.779,0.0
52876.0,STARLINK-4200,PAYLOAD,2024-01-11 05:41:59,15.08851266,0.0001494,53.2182,313.6191,102.9485,257.1674,0.00016234,2.297e-05,0.0,0 STARLINK-4200,1 52876U 22062AY  24011.23748963  .00002297  00000-0  16234-3 0  9999,2 52876  53.2182 313.6191 0001494 102.9485 257.1674 15.08851266 87528,6917.846,95.437,540.744,538.677,0.0
52876.0,STARLINK-4200,PAYLOAD,2024-01-11 20:00:27,15.08840243,0.0001544,53.2179,310.9432,109.7177,250.3982,2.555e-05,1.19e-06,0.0,0 STARLINK-4200,1 52876U 22062AY  24011.83365648  .00000119  00000-0  25550-4 0  9993,2 52876  53.2179 310.9432 0001544 109.7177 250.3982 15.08840243 87611,6917.88,95.438,540.813,538.677,0.0
52876.0,STARLINK-4200,PAYLOAD,2024-01-12 05:32:46,15.08847126,0.0001407,53.217,309.1609,96.4925,263.6228,0.00019973,2.893e-05,0.0,0 STARLINK-4200,1 52876U 22062AY  24012.23109423  .00002893  00000-0  19973-3 0  9997,2 52876  53.2170 309.1609 0001407  96.4925 263.6228 15.08847126 87188,6917.859,95.437,540.697,538.75,0.0
52876.0,STARLINK-4200,PAYLOAD,2024-01-12 23:02:00,15.08851386,0.0001594,53.2181,305.8898,108.3706,251.746,0.00022996,3.375e-05,0.0,0 STARLINK-4200,1 52876U 22062AY  24012.95973334  .00003375  00000-0  22996-3 0  9991,2 52876  53.2181 305.8898 0001594 108.3706 251.7460 15.08851386 87291,6917.846,95.437,540.813,538.608,0.0
52876.0,STARLINK-4200,PAYLOAD,2024-01-13 00:37:23,15.08853099,0.0001748,53.2182,305.5924,112.4406,247.6771,0.0002404,3.541e-05,0.0,0 STARLINK-4200,1 52876U 22062AY  24013.02597198  .00003541  00000-0  24040-3 0  9997,2 52876  53.2182 305.5924 0001748 112.4406 247.6771 15.08853099 87790,6917.84,95.437,540.915,538.496,0.0
52876.0,STARLINK-4200,PAYLOAD,2024-01-13 19:42:02,15.0884126,0.0001594,53.2173,302.032,77.6878,282.4292,7.2195e-05,8.61e-06,0.0,0 STARLINK-4200,1 52876U 22062AY  24013.82085844  .00000861  00000-0  72195-4 0  9992,2 52876  53.2173 302.0320 0001594  77.6878 282.4292 15.08841260 87912,6917.877,95.437,540.844,538.639,0.0
